CCSDS_OMM_VERS = 2.0
CREATION_DATE  = 
ORIGINATOR     = 

OBJECT_NAME    = UNKNOWN
OBJECT_ID      = 
CENTER_NAME    = EARTH
REF_FRAME      = TEME
TIME_SYSTEM    = UTC
MEAN_ELEMENT_THEORY = SGP/SGP4

EPOCH          = 2025-11-27T17:48:43.862112
MEAN_MOTION    = 13.66637979
ECCENTRICITY   = .02700877
INCLINATION    = 98.3435
RA_OF_ASC_NODE = 136.4238
ARG_OF_PERICENTER = 313.2616
MEAN_ANOMALY   = 44.6275

EPHEMERIS_TYPE = 0
CLASSIFICATION_TYPE = U
NORAD_CAT_ID   = 270077
ELEMENT_SET_NO = 999
REV_AT_EPOCH   = 29890
BSTAR          = .11736733E-2
MEAN_MOTION_DOT = .1217E-4
MEAN_MOTION_DDOT = 0

CCSDS_OMM_VERS = 2.0
CREATION_DATE  = 
ORIGINATOR     = 

OBJECT_NAME    = UNKNOWN
OBJECT_ID      = 
CENTER_NAME    = EARTH
REF_FRAME      = TEME
TIME_SYSTEM    = UTC
MEAN_ELEMENT_THEORY = SGP/SGP4

EPOCH          = 2025-12-03T00:12:54.102528
MEAN_MOTION    = 14.35823978
ECCENTRICITY   = .00157184
INCLINATION    = 86.3937
RA_OF_ASC_NODE = 82.7942
ARG_OF_PERICENTER = 257.7834
MEAN_ANOMALY   = 102.1603

EPHEMERIS_TYPE = 0
CLASSIFICATION_TYPE = U
NORAD_CAT_ID   = 270078
ELEMENT_SET_NO = 999
REV_AT_EPOCH   = 31504
BSTAR          = .35654802E-3
MEAN_MOTION_DOT = .1052E-4
MEAN_MOTION_DDOT = 0

CCSDS_OMM_VERS = 2.0
CREATION_DATE  = 
ORIGINATOR     = 

OBJECT_NAME    = UNKNOWN
OBJECT_ID      = 
CENTER_NAME    = EARTH
REF_FRAME      = TEME
TIME_SYSTEM    = UTC
MEAN_ELEMENT_THEORY = SGP/SGP4

EPOCH          = 2025-12-06T00:09:06.444576
MEAN_MOTION    = 12.38296307
ECCENTRICITY   = .01619642
INCLINATION    = 56.0478
RA_OF_ASC_NODE = 78.9941
ARG_OF_PERICENTER = 30.7734
MEAN_ANOMALY   = 330.2544

EPHEMERIS_TYPE = 0
CLASSIFICATION_TYPE = U
NORAD_CAT_ID   = 270079
ELEMENT_SET_NO = 999
REV_AT_EPOCH   = 27251
BSTAR          = .30092996E-3
MEAN_MOTION_DOT = -.52E-6
MEAN_MOTION_DDOT = 0

CCSDS_OMM_VERS = 2.0
CREATION_DATE  = 
ORIGINATOR     = 

OBJECT_NAME    = UNKNOWN
OBJECT_ID      = 
CENTER_NAME    = EARTH
REF_FRAME      = TEME
TIME_SYSTEM    = UTC
MEAN_ELEMENT_THEORY = SGP/SGP4

EPOCH          = 2025-12-02T18:48:49.727232
MEAN_MOTION    = 12.96560463
ECCENTRICITY   = .00174139
INCLINATION    = 90.2385
RA_OF_ASC_NODE = 345.7355
ARG_OF_PERICENTER = 247.5986
MEAN_ANOMALY   = 112.3290

EPHEMERIS_TYPE = 0
CLASSIFICATION_TYPE = U
NORAD_CAT_ID   = 270081
ELEMENT_SET_NO = 999
REV_AT_EPOCH   = 28454
BSTAR          = .32840569E-2
MEAN_MOTION_DOT = .949E-5
MEAN_MOTION_DDOT = 0

CCSDS_OMM_VERS = 2.0
CREATION_DATE  = 
ORIGINATOR     = 

OBJECT_NAME    = UNKNOWN
OBJECT_ID      = 
CENTER_NAME    = EARTH
REF_FRAME      = TEME
TIME_SYSTEM    = UTC
MEAN_ELEMENT_THEORY = SGP/SGP4

EPOCH          = 2025-11-30T20:01:45.616800
MEAN_MOTION    = 13.98456668
ECCENTRICITY   = .02200194
INCLINATION    = 74.0159
RA_OF_ASC_NODE = 18.6642
ARG_OF_PERICENTER = 184.4660
MEAN_ANOMALY   = 175.4517

EPHEMERIS_TYPE = 0
CLASSIFICATION_TYPE = U
NORAD_CAT_ID   = 270082
ELEMENT_SET_NO = 999
REV_AT_EPOCH   = 30563
BSTAR          = .12625035E-2
MEAN_MOTION_DOT = .2199E-4
MEAN_MOTION_DDOT = 0

CCSDS_OMM_VERS = 2.0
CREATION_DATE  = 
ORIGINATOR     = 

OBJECT_NAME    = UNKNOWN
OBJECT_ID      = 
CENTER_NAME    = EARTH
REF_FRAME      = TEME
TIME_SYSTEM    = UTC
MEAN_ELEMENT_THEORY = SGP/SGP4

EPOCH          = 2025-12-02T00:03:06.418368
MEAN_MOTION    = 15.29750610
ECCENTRICITY   = .00144711
INCLINATION    = 74.0171
RA_OF_ASC_NODE = 240.6078
ARG_OF_PERICENTER = 101.1672
MEAN_ANOMALY   = 259.1158

EPHEMERIS_TYPE = 0
CLASSIFICATION_TYPE = U
NORAD_CAT_ID   = 270083
ELEMENT_SET_NO = 999
REV_AT_EPOCH   = 32007
BSTAR          = .4426631E-2
MEAN_MOTION_DOT = .130202E-2
MEAN_MOTION_DDOT = 0

CCSDS_OMM_VERS = 2.0
CREATION_DATE  = 
ORIGINATOR     = 

OBJECT_NAME    = UNKNOWN
OBJECT_ID      = 
CENTER_NAME    = EARTH
REF_FRAME      = TEME
TIME_SYSTEM    = UTC
MEAN_ELEMENT_THEORY = SGP/SGP4

EPOCH          = 2025-12-05T06:10:05.251008
MEAN_MOTION    = 13.78202183
ECCENTRICITY   = .03942701
INCLINATION    = 72.8770
RA_OF_ASC_NODE = 178.4214
ARG_OF_PERICENTER = 256.4500
MEAN_ANOMALY   = 99.2415

EPHEMERIS_TYPE = 0
CLASSIFICATION_TYPE = U
NORAD_CAT_ID   = 270084
ELEMENT_SET_NO = 999
REV_AT_EPOCH   = 29893
BSTAR          = .76251917E-2
MEAN_MOTION_DOT = .13708E-3
MEAN_MOTION_DDOT = 0

CCSDS_OMM_VERS = 2.0
CREATION_DATE  = 
ORIGINATOR     = 

OBJECT_NAME    = UNKNOWN
OBJECT_ID      = 
CENTER_NAME    = EARTH
REF_FRAME      = TEME
TIME_SYSTEM    = UTC
MEAN_ELEMENT_THEORY = SGP/SGP4

EPOCH          = 2025-12-03T11:35:38.893920
MEAN_MOTION    = 12.80649935
ECCENTRICITY   = .06644317
INCLINATION    = 99.2705
RA_OF_ASC_NODE = 244.9482
ARG_OF_PERICENTER = 354.7137
MEAN_ANOMALY   = 4.7183

EPHEMERIS_TYPE = 0
CLASSIFICATION_TYPE = U
NORAD_CAT_ID   = 270085
ELEMENT_SET_NO = 999
REV_AT_EPOCH   = 28026
BSTAR          = .74400398E-2
MEAN_MOTION_DOT = .4338E-4
MEAN_MOTION_DDOT = 0

CCSDS_OMM_VERS = 2.0
CREATION_DATE  = 
ORIGINATOR     = 

OBJECT_NAME    = UNKNOWN
OBJECT_ID      = 
CENTER_NAME    = EARTH
REF_FRAME      = TEME
TIME_SYSTEM    = UTC
MEAN_ELEMENT_THEORY = SGP/SGP4

EPOCH          = 2025-12-02T22:19:40.626912
MEAN_MOTION    = 14.92225510
ECCENTRICITY   = .00243064
INCLINATION    = 86.3490
RA_OF_ASC_NODE = 43.1546
ARG_OF_PERICENTER = 125.7276
MEAN_ANOMALY   = 234.6218

EPHEMERIS_TYPE = 0
CLASSIFICATION_TYPE = U
NORAD_CAT_ID   = 270086
ELEMENT_SET_NO = 999
REV_AT_EPOCH   = 8011
BSTAR          = .50523042E-2
MEAN_MOTION_DOT = .52119E-3
MEAN_MOTION_DDOT = 0

CCSDS_OMM_VERS = 2.0
CREATION_DATE  = 
ORIGINATOR     = 

OBJECT_NAME    = UNKNOWN
OBJECT_ID      = 
CENTER_NAME    = EARTH
REF_FRAME      = TEME
TIME_SYSTEM    = UTC
MEAN_ELEMENT_THEORY = SGP/SGP4

EPOCH          = 2025-11-11T01:02:07.848960
MEAN_MOTION    = 12.81474329
ECCENTRICITY   = .07213362
INCLINATION    = 72.8111
RA_OF_ASC_NODE = 238.9424
ARG_OF_PERICENTER = 93.3170
MEAN_ANOMALY   = 275.0609

EPHEMERIS_TYPE = 0
CLASSIFICATION_TYPE = U
NORAD_CAT_ID   = 270087
ELEMENT_SET_NO = 999
REV_AT_EPOCH   = 27745
BSTAR          = .61316752E-2
MEAN_MOTION_DOT = .4333E-4
MEAN_MOTION_DDOT = 0

CCSDS_OMM_VERS = 2.0
CREATION_DATE  = 
ORIGINATOR     = 

OBJECT_NAME    = UNKNOWN
OBJECT_ID      = 
CENTER_NAME    = EARTH
REF_FRAME      = TEME
TIME_SYSTEM    = UTC
MEAN_ELEMENT_THEORY = SGP/SGP4

EPOCH          = 2025-12-01T07:37:09.492672
MEAN_MOTION    = 12.25964579
ECCENTRICITY   = .01354377
INCLINATION    = 74.0238
RA_OF_ASC_NODE = 197.3686
ARG_OF_PERICENTER = 174.6643
MEAN_ANOMALY   = 185.5875

EPHEMERIS_TYPE = 0
CLASSIFICATION_TYPE = U
NORAD_CAT_ID   = 270088
ELEMENT_SET_NO = 999
REV_AT_EPOCH   = 26919
BSTAR          = .34141938E-3
MEAN_MOTION_DOT = .25E-6
MEAN_MOTION_DDOT = 0

CCSDS_OMM_VERS = 2.0
CREATION_DATE  = 
ORIGINATOR     = 

OBJECT_NAME    = UNKNOWN
OBJECT_ID      = 
CENTER_NAME    = EARTH
REF_FRAME      = TEME
TIME_SYSTEM    = UTC
MEAN_ELEMENT_THEORY = SGP/SGP4

EPOCH          = 2025-11-29T14:52:24.225312
MEAN_MOTION    = 14.23796292
ECCENTRICITY   = .0037069
INCLINATION    = 98.8537
RA_OF_ASC_NODE = 282.1977
ARG_OF_PERICENTER = 109.3591
MEAN_ANOMALY   = 251.1601

EPHEMERIS_TYPE = 0
CLASSIFICATION_TYPE = U
NORAD_CAT_ID   = 270089
ELEMENT_SET_NO = 999
REV_AT_EPOCH   = 31216
BSTAR          = .16382549E-3
MEAN_MOTION_DOT = .332E-5
MEAN_MOTION_DDOT = 0

CCSDS_OMM_VERS = 2.0
CREATION_DATE  = 
ORIGINATOR     = 

OBJECT_NAME    = UNKNOWN
OBJECT_ID      = 
CENTER_NAME    = EARTH
REF_FRAME      = TEME
TIME_SYSTEM    = UTC
MEAN_ELEMENT_THEORY = SGP/SGP4

EPOCH          = 2025-12-03T08:44:13.635744
MEAN_MOTION    = 14.47401774
ECCENTRICITY   = .00128704
INCLINATION    = 97.9832
RA_OF_ASC_NODE = 202.8342
ARG_OF_PERICENTER = 124.4596
MEAN_ANOMALY   = 235.7815

EPHEMERIS_TYPE = 0
CLASSIFICATION_TYPE = U
NORAD_CAT_ID   = 270090
ELEMENT_SET_NO = 999
REV_AT_EPOCH   = 31713
BSTAR          = .25332966E-3
MEAN_MOTION_DOT = .89E-5
MEAN_MOTION_DDOT = 0

CCSDS_OMM_VERS = 2.0
CREATION_DATE  = 
ORIGINATOR     = 

OBJECT_NAME    = UNKNOWN
OBJECT_ID      = 
CENTER_NAME    = EARTH
REF_FRAME      = TEME
TIME_SYSTEM    = UTC
MEAN_ELEMENT_THEORY = SGP/SGP4

EPOCH          = 2025-11-29T19:25:49.113408
MEAN_MOTION    = 12.95488742
ECCENTRICITY   = .00296578
INCLINATION    = 90.2386
RA_OF_ASC_NODE = 5.6740
ARG_OF_PERICENTER = 302.1230
MEAN_ANOMALY   = 57.7012

EPHEMERIS_TYPE = 0
CLASSIFICATION_TYPE = U
NORAD_CAT_ID   = 270091
ELEMENT_SET_NO = 999
REV_AT_EPOCH   = 28419
BSTAR          = -.50372006E-3
MEAN_MOTION_DOT = -.135E-5
MEAN_MOTION_DDOT = 0

CCSDS_OMM_VERS = 2.0
CREATION_DATE  = 
ORIGINATOR     = 

OBJECT_NAME    = UNKNOWN
OBJECT_ID      = 
CENTER_NAME    = EARTH
REF_FRAME      = TEME
TIME_SYSTEM    = UTC
MEAN_ELEMENT_THEORY = SGP/SGP4

EPOCH          = 2025-11-30T20:14:41.551008
MEAN_MOTION    = 12.92544725
ECCENTRICITY   = .00311662
INCLINATION    = 90.2386
RA_OF_ASC_NODE = 1.6440
ARG_OF_PERICENTER = 81.1885
MEAN_ANOMALY   = 279.2760

EPHEMERIS_TYPE = 0
CLASSIFICATION_TYPE = U
NORAD_CAT_ID   = 270093
ELEMENT_SET_NO = 999
REV_AT_EPOCH   = 28364
BSTAR          = .65713891E-3
MEAN_MOTION_DOT = .186E-5
MEAN_MOTION_DDOT = 0

CCSDS_OMM_VERS = 2.0
CREATION_DATE  = 
ORIGINATOR     = 

OBJECT_NAME    = UNKNOWN
OBJECT_ID      = 
CENTER_NAME    = EARTH
REF_FRAME      = TEME
TIME_SYSTEM    = UTC
MEAN_ELEMENT_THEORY = SGP/SGP4

EPOCH          = 2025-12-04T04:49:46.918272
MEAN_MOTION    = 12.23905887
ECCENTRICITY   = .01198111
INCLINATION    = 102.5799
RA_OF_ASC_NODE = 314.0244
ARG_OF_PERICENTER = 275.9341
MEAN_ANOMALY   = 82.8066

EPHEMERIS_TYPE = 0
CLASSIFICATION_TYPE = U
NORAD_CAT_ID   = 270094
ELEMENT_SET_NO = 999
REV_AT_EPOCH   = 26905
BSTAR          = .64539963E-3
MEAN_MOTION_DOT = .25E-6
MEAN_MOTION_DDOT = 0

